HAWK-10C                
1 60575U 24149DM  26068.80000012  .00002841  00000+0  25720-3 0  9999
2 60575  97.6791 145.3128 0003886  47.6078 312.5472 14.96177491 85124
STARLINK-34663          
1 64807U 25150T   26068.60779270  .00001928  00000+0  16930-3 0  9999
2 64807  70.0019 134.7012 0003609 271.2876  88.7869 14.98334733 36508
